{
  "type": "FeatureCollection",
  "features": [
    {
      "type": "Feature",
      "properties": {
        "norad_id": 66865,
        "name": "STARLINK-36117",
        "group": "last-30-days",
        "lat": -35.68672343901325,
        "lon": 65.90188288497099,
        "alt_km": 306.66291480250766,
        "timestamp": "2025-12-13T16:48:31.467290+00:00",
        "meta_object_name": "STARLINK-36117",
        "meta_object_id": "2025-281T",
        "meta_epoch": "2025-12-12T20:00:01.999872",
        "meta_mean_motion": 15.91282304,
        "meta_eccentricity": 0.00017511,
        "meta_inclination": 43.0013,
        "meta_ra_of_asc_node": 121.7008,
        "meta_arg_of_pericenter": 280.0066,
        "meta_mean_anomaly": 91.9338,
        "meta_ephemeris_type": 0,
        "meta_classification_type": "U",
        "meta_norad_cat_id": 66865,
        "meta_element_set_no": 999,
        "meta_rev_at_epoch": 142,
        "meta_bstar": -0.0042153345,
        "meta_mean_motion_dot": -0.01393838,
        "meta_mean_motion_ddot": 0.00055081809,
        "tle_line1": "1 66865U 25281T   25346.83335648 -.01393838  55082-3 -42153-2 0  9996",
        "tle_line2": "2 66865  43.0013 121.7008 0001751 280.0066  91.9338 15.91282304  1424"
      },
      "geometry": {
        "type": "Point",
        "coordinates": [
          65.90188288497099,
          -35.68672343901325
        ]
      }
    },
    {
      "type": "Feature",
      "properties": {
        "norad_id": 66866,
        "name": "STARLINK-36126",
        "group": "last-30-days",
        "lat": -34.60527598447006,
        "lon": 68.54673949782854,
        "alt_km": 306.59657413273726,
        "timestamp": "2025-12-13T16:48:31.467301+00:00",
        "meta_object_name": "STARLINK-36126",
        "meta_object_id": "2025-281U",
        "meta_epoch": "2025-12-12T20:00:01.999872",
        "meta_mean_motion": 15.91308024,
        "meta_eccentricity": 0.00016734,
        "meta_inclination": 43.0012,
        "meta_ra_of_asc_node": 121.695,
        "meta_arg_of_pericenter": 280.091,
        "meta_mean_anomaly": 94.1899,
        "meta_ephemeris_type": 0,
        "meta_classification_type": "U",
        "meta_norad_cat_id": 66866,
        "meta_element_set_no": 999,
        "meta_rev_at_epoch": 145,
        "meta_bstar": -0.0042054396,
        "meta_mean_motion_dot": -0.01392413,
        "meta_mean_motion_ddot": 0.0005499218,
        "tle_line1": "1 66866U 25281U   25346.83335648 -.01392413  54992-3 -42054-2 0  9994",
        "tle_line2": "2 66866  43.0012 121.6950 0001673 280.0910  94.1899 15.91308024  1458"
      },
      "geometry": {
        "type": "Point",
        "coordinates": [
          68.54673949782854,
          -34.60527598447006
        ]
      }
    },
    {
      "type": "Feature",
      "properties": {
        "norad_id": 66867,
        "name": "STARLINK-36101",
        "group": "last-30-days",
        "lat": -33.11432681779368,
        "lon": 71.88603127647387,
        "alt_km": 306.4802488875339,
        "timestamp": "2025-12-13T16:48:31.467319+00:00",
        "meta_object_name": "STARLINK-36101",
        "meta_object_id": "2025-281V",
        "meta_epoch": "2025-12-12T20:00:01.999872",
        "meta_mean_motion": 15.91335699,
        "meta_eccentricity": 0.00016829,
        "meta_inclination": 43.0015,
        "meta_ra_of_asc_node": 121.687,
        "meta_arg_of_pericenter": 283.2573,
        "meta_mean_anomaly": 94.1294,
        "meta_ephemeris_type": 0,
        "meta_classification_type": "U",
        "meta_norad_cat_id": 66867,
        "meta_element_set_no": 999,
        "meta_rev_at_epoch": 130,
        "meta_bstar": -0.0042401432,
        "meta_mean_motion_dot": -0.01405759,
        "meta_mean_motion_ddot": 0.0005597679,
        "tle_line1": "1 66867U 25281V   25346.83335648 -.01405759  55977-3 -42401-2 0  9993",
        "tle_line2": "2 66867  43.0015 121.6870 0001682 283.2573  94.1294 15.91335699  1304"
      },
      "geometry": {
        "type": "Point",
        "coordinates": [
          71.88603127647387,
          -33.11432681779368
        ]
      }
    },
    {
      "type": "Feature",
      "properties": {
        "norad_id": 66868,
        "name": "STARLINK-36108",
        "group": "last-30-days",
        "lat": -31.41632518168371,
        "lon": 75.34490523339365,
        "alt_km": 306.377096058809,
        "timestamp": "2025-12-13T16:48:31.467329+00:00",
        "meta_object_name": "STARLINK-36108",
        "meta_object_id": "2025-281W",
        "meta_epoch": "2025-12-12T20:00:01.999872",
        "meta_mean_motion": 15.91362802,
        "meta_eccentricity": 0.0001707,
        "meta_inclination": 43.0013,
        "meta_ra_of_asc_node": 121.6784,
        "meta_arg_of_pericenter": 281.2954,
        "meta_mean_anomaly": 99.4206,
        "meta_ephemeris_type": 0,
        "meta_classification_type": "U",
        "meta_norad_cat_id": 66868,
        "meta_element_set_no": 999,
        "meta_rev_at_epoch": 130,
        "meta_bstar": -0.0042638061,
        "meta_mean_motion_dot": -0.01415479,
        "meta_mean_motion_ddot": 0.00056702925,
        "tle_line1": "1 66868U 25281W   25346.83335648 -.01415479  56703-3 -42638-2 0  9994",
        "tle_line2": "2 66868  43.0013 121.6784 0001707 281.2954  99.4206 15.91362802  1303"
      },
      "geometry": {
        "type": "Point",
        "coordinates": [
          75.34490523339365,
          -31.41632518168371
        ]
      }
    },
    {
      "type": "Feature",
      "properties": {
        "norad_id": 66869,
        "name": "STARLINK-36092",
        "group": "last-30-days",
        "lat": -30.00884084640213,
        "lon": 77.99192766133521,
        "alt_km": 306.1938419297421,
        "timestamp": "2025-12-13T16:48:31.467338+00:00",
        "meta_object_name": "STARLINK-36092",
        "meta_object_id": "2025-281X",
        "meta_epoch": "2025-12-12T20:00:01.999872",
        "meta_mean_motion": 15.91392378,
        "meta_eccentricity": 0.00018406,
        "meta_inclination": 43.0014,
        "meta_ra_of_asc_node": 121.6719,
        "meta_arg_of_pericenter": 279.7683,
        "meta_mean_anomaly": 103.5493,
        "meta_ephemeris_type": 0,
        "meta_classification_type": "U",
        "meta_norad_cat_id": 66869,
        "meta_element_set_no": 999,
        "meta_rev_at_epoch": 145,
        "meta_bstar": -0.0042730063,
        "meta_mean_motion_dot": -0.01420674,
        "meta_mean_motion_ddot": 0.00057101218,
        "tle_line1": "1 66869U 25281X   25346.83335648 -.01420674  57101-3 -42730-2 0  9994",
        "tle_line2": "2 66869  43.0014 121.6719 0001840 279.7683 103.5493 15.91392378  1454"
      },
      "geometry": {
        "type": "Point",
        "coordinates": [
          77.99192766133521,
          -30.00884084640213
        ]
      }
    },
    {
      "type": "Feature",
      "properties": {
        "norad_id": 66870,
        "name": "STARLINK-36114",
        "group": "last-30-days",
        "lat": -28.137761396931392,
        "lon": 81.2606572191234,
        "alt_km": 306.22470092406274,
        "timestamp": "2025-12-13T16:48:31.467348+00:00",
        "meta_object_name": "STARLINK-36114",
        "meta_object_id": "2025-281Y",
        "meta_epoch": "2025-12-12T20:00:01.999872",
        "meta_mean_motion": 15.91423713,
        "meta_eccentricity": 0.00016942,
        "meta_inclination": 43.0012,
        "meta_ra_of_asc_node": 121.6633,
        "meta_arg_of_pericenter": 277.864,
        "meta_mean_anomaly": 108.8233,
        "meta_ephemeris_type": 0,
        "meta_classification_type": "U",
        "meta_norad_cat_id": 66870,
        "meta_element_set_no": 999,
        "meta_rev_at_epoch": 132,
        "meta_bstar": -0.0043195189,
        "meta_mean_motion_dot": -0.01438226,
        "meta_mean_motion_ddot": 0.0005841888,
        "tle_line1": "1 66870U 25281Y   25346.83335648 -.01438226  58419-3 -43195-2 0  9997",
        "tle_line2": "2 66870  43.0012 121.6633 0001694 277.8640 108.8233 15.91423713  1322"
      },
      "geometry": {
        "type": "Point",
        "coordinates": [
          81.2606572191234,
          -28.137761396931392
        ]
      }
    },
    {
      "type": "Feature",
      "properties": {
        "norad_id": 66871,
        "name": "STARLINK-36095",
        "group": "last-30-days",
        "lat": -26.14437171982925,
        "lon": 84.48796011960816,
        "alt_km": 306.07806464855094,
        "timestamp": "2025-12-13T16:48:31.467358+00:00",
        "meta_object_name": "STARLINK-36095",
        "meta_object_id": "2025-281Z",
        "meta_epoch": "2025-12-12T20:00:01.999872",
        "meta_mean_motion": 15.91449847,
        "meta_eccentricity": 0.00016138,
        "meta_inclination": 43.001,
        "meta_ra_of_asc_node": 121.6542,
        "meta_arg_of_pericenter": 281.1966,
        "meta_mean_anomaly": 108.9317,
        "meta_ephemeris_type": 0,
        "meta_classification_type": "U",
        "meta_norad_cat_id": 66871,
        "meta_element_set_no": 999,
        "meta_rev_at_epoch": 145,
        "meta_bstar": -0.0043330235,
        "meta_mean_motion_dot": -0.01444581,
        "meta_mean_motion_ddot": 0.00058907787,
        "tle_line1": "1 66871U 25281Z   25346.83335648 -.01444581  58908-3 -43330-2 0  9993",
        "tle_line2": "2 66871  43.0010 121.6542 0001613 281.1966 108.9317 15.91449847  1454"
      },
      "geometry": {
        "type": "Point",
        "coordinates": [
          84.48796011960816,
          -26.14437171982925
        ]
      }
    }
  ]
}